[{"OBJECT_NAME":"TIGRISAT","OBJECT_ID":"2014-033AK","EPOCH":"2026-04-26T08:50:27.796992","MEAN_MOTION":14.84936304,"ECCENTRICITY":0.00482211,"INCLINATION":97.7766,"RA_OF_ASC_NODE":267.5945,"ARG_OF_PERICENTER":243.8627,"MEAN_ANOMALY":115.7623,"EPHEMERIS_TYPE":0,"CLASSIFICATION_TYPE":"U","NORAD_CAT_ID":40043,"ELEMENT_SET_NO":999,"REV_AT_EPOCH":63793,"BSTAR":0.00026669056,"MEAN_MOTION_DOT":2.262e-5,"MEAN_MOTION_DDOT":0},{"OBJECT_NAME":"AEROCUBE 6A","OBJECT_ID":"2014-033AM","EPOCH":"2026-04-26T23:36:47.244096","MEAN_MOTION":14.97494972,"ECCENTRICITY":0.00390186,"INCLINATION":97.7183,"RA_OF_ASC_NODE":284.5132,"ARG_OF_PERICENTER":185.7956,"MEAN_ANOMALY":174.282,"EPHEMERIS_TYPE":0,"CLASSIFICATION_TYPE":"U","NORAD_CAT_ID":40045,"ELEMENT_SET_NO":999,"REV_AT_EPOCH":63895,"BSTAR":0.00062129522,"MEAN_MOTION_DOT":7.297e-5,"MEAN_MOTION_DDOT":0},{"OBJECT_NAME":"AEROCUBE 6B","OBJECT_ID":"2014-033AN","EPOCH":"2026-04-27T05:39:19.964736","MEAN_MOTION":14.98935969,"ECCENTRICITY":0.00371044,"INCLINATION":97.7185,"RA_OF_ASC_NODE":284.4507,"ARG_OF_PERICENTER":175.723,"MEAN_ANOMALY":184.4318,"EPHEMERIS_TYPE":0,"CLASSIFICATION_TYPE":"U","NORAD_CAT_ID":40046,"ELEMENT_SET_NO":999,"REV_AT_EPOCH":63912,"BSTAR":0.00069039582,"MEAN_MOTION_DOT":8.416e-5,"MEAN_MOTION_DDOT":0},{"OBJECT_NAME":"CANX-4","OBJECT_ID":"2014-034C","EPOCH":"2026-04-27T05:12:32.331168","MEAN_MOTION":14.81169482,"ECCENTRICITY":0.00129167,"INCLINATION":98.3193,"RA_OF_ASC_NODE":350.6436,"ARG_OF_PERICENTER":169.2586,"MEAN_ANOMALY":190.8904,"EPHEMERIS_TYPE":0,"CLASSIFICATION_TYPE":"U","NORAD_CAT_ID":40055,"ELEMENT_SET_NO":999,"REV_AT_EPOCH":63698,"BSTAR":0.00013853652,"MEAN_MOTION_DOT":1.021e-5,"MEAN_MOTION_DDOT":0},{"OBJECT_NAME":"CANX-5","OBJECT_ID":"2014-034D","EPOCH":"2026-04-27T05:11:07.702368","MEAN_MOTION":14.81186488,"ECCENTRICITY":0.00129151,"INCLINATION":98.3196,"RA_OF_ASC_NODE":350.6831,"ARG_OF_PERICENTER":169.4703,"MEAN_ANOMALY":190.6782,"EPHEMERIS_TYPE":0,"CLASSIFICATION_TYPE":"U","NORAD_CAT_ID":40056,"ELEMENT_SET_NO":999,"REV_AT_EPOCH":62779,"BSTAR":0.00013860776,"MEAN_MOTION_DOT":1.022e-5,"MEAN_MOTION_DDOT":0},{"OBJECT_NAME":"UKUBE-1","OBJECT_ID":"2014-037F","EPOCH":"2026-04-27T05:58:14.796768","MEAN_MOTION":15.12734432,"ECCENTRICITY":0.000181,"INCLINATION":98.4247,"RA_OF_ASC_NODE":115.2052,"ARG_OF_PERICENTER":46.8651,"MEAN_ANOMALY":313.2728,"EPHEMERIS_TYPE":0,"CLASSIFICATION_TYPE":"U","NORAD_CAT_ID":40074,"ELEMENT_SET_NO":999,"REV_AT_EPOCH":64085,"BSTAR":0.00061489831,"MEAN_MOTION_DOT":0.00010707,"MEAN_MOTION_DDOT":0},{"OBJECT_NAME":"BRITE-PL2 (HEWELIUSZ)","OBJECT_ID":"2014-049B","EPOCH":"2026-04-27T06:54:07.244640","MEAN_MOTION":14.9440052,"ECCENTRICITY":0.00126948,"INCLINATION":97.9036,"RA_OF_ASC_NODE":228.9197,"ARG_OF_PERICENTER":279.3012,"MEAN_ANOMALY":80.6772,"EPHEMERIS_TYPE":0,"CLASSIFICATION_TYPE":"U","NORAD_CAT_ID":40119,"ELEMENT_SET_NO":999,"REV_AT_EPOCH":63384,"BSTAR":0.00016835209,"MEAN_MOTION_DOT":1.756e-5,"MEAN_MOTION_DDOT":0},{"OBJECT_NAME":"AEROCUBE 5C","OBJECT_ID":"2015-058B","EPOCH":"2026-04-27T06:32:33.747648","MEAN_MOTION":14.91146709,"ECCENTRICITY":0.01296085,"INCLINATION":64.768,"RA_OF_ASC_NODE":60.9441,"ARG_OF_PERICENTER":83.2576,"MEAN_ANOMALY":278.3266,"EPHEMERIS_TYPE":0,"CLASSIFICATION_TYPE":"U","NORAD_CAT_ID":40965,"ELEMENT_SET_NO":999,"REV_AT_EPOCH":35806,"BSTAR":0.00037317596,"MEAN_MOTION_DOT":4.188e-5,"MEAN_MOTION_DDOT":0},{"OBJECT_NAME":"AEROCUBE 7","OBJECT_ID":"2015-058C","EPOCH":"2026-04-27T05:05:09.597696","MEAN_MOTION":14.95301413,"ECCENTRICITY":0.01194921,"INCLINATION":64.7638,"RA_OF_ASC_NODE":44.4294,"ARG_OF_PERICENTER":82.0662,"MEAN_ANOMALY":279.3994,"EPHEMERIS_TYPE":0,"CLASSIFICATION_TYPE":"U","NORAD_CAT_ID":40966,"ELEMENT_SET_NO":999,"REV_AT_EPOCH":35833,"BSTAR":0.00048783071,"MEAN_MOTION_DOT":6.047e-5,"MEAN_MOTION_DDOT":0},{"OBJECT_NAME":"FOX-1A (AO-85)","OBJECT_ID":"2015-058D","EPOCH":"2026-04-27T07:17:00.359232","MEAN_MOTION":14.90650113,"ECCENTRICITY":0.01285772,"INCLINATION":64.7748,"RA_OF_ASC_NODE":77.0739,"ARG_OF_PERICENTER":76.5294,"MEAN_ANOMALY":285.0109,"EPHEMERIS_TYPE":0,"CLASSIFICATION_TYPE":"U","NORAD_CAT_ID":40967,"ELEMENT_SET_NO":999,"REV_AT_EPOCH":10598,"BSTAR":0.00038847226,"MEAN_MOTION_DOT":4.297e-5,"MEAN_MOTION_DDOT":0},{"OBJECT_NAME":"SINOD-D 1","OBJECT_ID":"2015-058E","EPOCH":"2026-04-27T06:18:24.039936","MEAN_MOTION":14.95472138,"ECCENTRICITY":0.01170814,"INCLINATION":64.7758,"RA_OF_ASC_NODE":58.3342,"ARG_OF_PERICENTER":73.4285,"MEAN_ANOMALY":287.9651,"EPHEMERIS_TYPE":0,"CLASSIFICATION_TYPE":"U","NORAD_CAT_ID":40968,"ELEMENT_SET_NO":999,"REV_AT_EPOCH":10904,"BSTAR":0.00051743531,"MEAN_MOTION_DOT":6.419e-5,"MEAN_MOTION_DDOT":0},{"OBJECT_NAME":"SNAP-3 ALICE","OBJECT_ID":"2015-058G","EPOCH":"2026-04-27T04:12:14.954112","MEAN_MOTION":15.50996159,"ECCENTRICITY":0.00315176,"INCLINATION":64.7536,"RA_OF_ASC_NODE":278.9201,"ARG_OF_PERICENTER":43.8095,"MEAN_ANOMALY":316.5538,"EPHEMERIS_TYPE":0,"CLASSIFICATION_TYPE":"U","NORAD_CAT_ID":40970,"ELEMENT_SET_NO":999,"REV_AT_EPOCH":10895,"BSTAR":0.0015029831,"MEAN_MOTION_DOT":0.00090408,"MEAN_MOTION_DDOT":0},{"OBJECT_NAME":"LMRST-SAT","OBJECT_ID":"2015-058H","EPOCH":"2026-04-27T05:54:11.083104","MEAN_MOTION":14.90277984,"ECCENTRICITY":0.01304342,"INCLINATION":64.7757,"RA_OF_ASC_NODE":73.495,"ARG_OF_PERICENTER":78.576,"MEAN_ANOMALY":282.9969,"EPHEMERIS_TYPE":0,"CLASSIFICATION_TYPE":"U","NORAD_CAT_ID":40971,"ELEMENT_SET_NO":999,"REV_AT_EPOCH":10596,"BSTAR":0.00037375392,"MEAN_MOTION_DOT":4.104e-5,"MEAN_MOTION_DDOT":0},{"OBJECT_NAME":"SNAP-3 EDDIE","OBJECT_ID":"2015-058J","EPOCH":"2026-04-27T03:20:14.111808","MEAN_MOTION":15.5211382,"ECCENTRICITY":0.00321427,"INCLINATION":64.7455,"RA_OF_ASC_NODE":270.1268,"ARG_OF_PERICENTER":47.2799,"MEAN_ANOMALY":313.104,"EPHEMERIS_TYPE":0,"CLASSIFICATION_TYPE":"U","NORAD_CAT_ID":40972,"ELEMENT_SET_NO":999,"REV_AT_EPOCH":11108,"BSTAR":0.0016499198,"MEAN_MOTION_DOT":0.0010361,"MEAN_MOTION_DDOT":0},{"OBJECT_NAME":"PROPCUBE 3","OBJECT_ID":"2015-058K","EPOCH":"2026-04-27T04:54:56.105856","MEAN_MOTION":14.93883611,"ECCENTRICITY":0.01227114,"INCLINATION":64.7696,"RA_OF_ASC_NODE":51.7774,"ARG_OF_PERICENTER":80.1698,"MEAN_ANOMALY":281.3245,"EPHEMERIS_TYPE":0,"CLASSIFICATION_TYPE":"U","NORAD_CAT_ID":40973,"ELEMENT_SET_NO":999,"REV_AT_EPOCH":10718,"BSTAR":0.00044236711,"MEAN_MOTION_DOT":5.297e-5,"MEAN_MOTION_DDOT":0},{"OBJECT_NAME":"BISONSAT","OBJECT_ID":"2015-058L","EPOCH":"2026-04-27T05:26:23.192448","MEAN_MOTION":15.15088,"ECCENTRICITY":0.00777313,"INCLINATION":64.7617,"RA_OF_ASC_NODE":338.2634,"ARG_OF_PERICENTER":70.1076,"MEAN_ANOMALY":290.8402,"EPHEMERIS_TYPE":0,"CLASSIFICATION_TYPE":"U","NORAD_CAT_ID":40974,"ELEMENT_SET_NO":999,"REV_AT_EPOCH":10789,"BSTAR":0.00081064369,"MEAN_MOTION_DOT":0.0001628,"MEAN_MOTION_DDOT":0}]
