TIGRISAT                
1 40043U 14033AK  26116.36837728  .00002262  00000+0  26669-3 0  9995
2 40043  97.7766 267.5945 0048221 243.8627 115.7623 14.84936304637937
AEROCUBE 6A             
1 40045U 14033AM  26116.98388014  .00007297  00000+0  62130-3 0  9990
2 40045  97.7183 284.5132 0039018 185.7956 174.2820 14.97494972638958
AEROCUBE 6B             
1 40046U 14033AN  26117.23564774  .00008416  00000+0  69040-3 0  9990
2 40046  97.7185 284.4507 0037104 175.7230 184.4318 14.98935969639126
CANX-4                  
1 40055U 14034C   26117.21704087  .00001021  00000+0  13854-3 0  9999
2 40055  98.3193 350.6436 0012916 169.2586 190.8904 14.81169482636989
CANX-5                  
1 40056U 14034D   26117.21606137  .00001022  00000+0  13861-3 0  9996
2 40056  98.3196 350.6831 0012915 169.4703 190.6782 14.81186488627790
UKUBE-1                 
1 40074U 14037F   26117.24878237  .00010707  00000+0  61490-3 0  9995
2 40074  98.4247 115.2052 0001810  46.8651 313.2728 15.12734432640858
BRITE-PL2 (HEWELIUSZ)   
1 40119U 14049B   26117.28758385  .00001756  00000+0  16835-3 0  9990
2 40119  97.9036 228.9197 0012694 279.3012  80.6772 14.94400520633848
AEROCUBE 5C             
1 40965U 15058B   26117.27261282  .00004188  00000+0  37318-3 0  9995
2 40965  64.7680  60.9441 0129608  83.2576 278.3266 14.91146709358066
AEROCUBE 7              
1 40966U 15058C   26117.21191664  .00006047  00000+0  48783-3 0  9990
2 40966  64.7638  44.4294 0119492  82.0662 279.3994 14.95301413358334
FOX-1A (AO-85)          
1 40967U 15058D   26117.30347638  .00004297  00000+0  38847-3 0  9990
2 40967  64.7748  77.0739 0128577  76.5294 285.0109 14.90650113105988
SINOD-D 1               
1 40968U 15058E   26117.26277824  .00006419  00000+0  51744-3 0  9994
2 40968  64.7758  58.3342 0117081  73.4285 287.9651 14.95472138109044
SNAP-3 ALICE            
1 40970U 15058G   26117.17517308  .00090408  00000+0  15030-2 0  9999
2 40970  64.7536 278.9201 0031517  43.8095 316.5538 15.50996159108952
LMRST-SAT               
1 40971U 15058H   26117.24596161  .00004104  00000+0  37375-3 0  9997
2 40971  64.7757  73.4950 0130434  78.5760 282.9969 14.90277984105962
SNAP-3 EDDIE            
1 40972U 15058J   26117.13905222  .00103610  00000+0  16499-2 0  9993
2 40972  64.7455 270.1268 0032142  47.2799 313.1040 15.52113820111082
PROPCUBE 3              
1 40973U 15058K   26117.20481604  .00005297  00000+0  44237-3 0  9999
2 40973  64.7696  51.7774 0122711  80.1698 281.3245 14.93883611107186
BISONSAT                
1 40974U 15058L   26117.22665732  .00016280  00000+0  81064-3 0  9991
2 40974  64.7617 338.2634 0077731  70.1076 290.8402 15.15088000107890
